METEOSAT-11 (MSG-4)
1 40732U 15034A   26119.27664362  .00000062  00000+0  00000+0 0  9990
2 40732   3.0796  71.3620 0001570 345.2912 269.6878  1.00264918  6723
